FORMOSAT 7-3            
1 44343U 19036E   26068.82630502  .00006445  00000+0  37650-3 0  9997
2 44343  23.9981 141.9797 0001061 150.4425 209.6139 15.08933962368215
STARLINK-4034           
1 52700U 22053AW  26068.48740855  .00000200  00000+0  30641-4 0  9998
2 52700  53.2168 149.6722 0001505  83.6284 276.4879 15.08836902211069
